IRIDIUM 39              
1 25042U 97069D   25253.19221369  .00000658  00000+0  16667-3 0  9991
2 25042  86.3985 174.7194 0019013  29.1486 331.0775 14.49320028461270
IRIDIUM 38              
1 25043U 97069E   25253.12373580  .00000471  00000+0  14886-3 0  9992
2 25043  86.4011 197.4375 0002876 128.1525 231.9933 14.38186042458160
IRIDIUM 42              
1 25077U 97077A   25252.88603105  .00000392  00000+0  12717-3 0  9992
2 25077  86.4004 203.8048 0002072 107.0778 253.0647 14.36415587453352
IRIDIUM 44              
1 25078U 97077B   25253.09818178  .00000484  00000+0  14657-3 0  9992
2 25078  86.4029 185.4385 0004034  96.4304 263.7354 14.40310862455928
IRIDIUM 45              
1 25104U 97082A   25252.77556491  .00015256  00000+0  50273-3 0  9996
2 25104  86.3626   6.7260 0109959  14.9943 345.4517 15.25566091464923
IRIDIUM 24              
1 25105U 97082B   25252.96176895  .00000547  00000+0  16015-3 0  9997
2 25105  86.3893  44.3133 0012374 149.0695 211.1237 14.42177552455437
IRIDIUM 51              
1 25262U 98018A   25252.89413773  .00038589  00000+0  71326-3 0  9995
2 25262  86.3856  13.7047 0074946 282.8948  76.3945 15.45756786460084
IRIDIUM 57              
1 25273U 98019B   25252.97986207  .00000287  00000+0  91985-4 0  9992
2 25273  86.3925 109.7355 0002131  90.4742 269.6699 14.35944672436956
